[{"OBJECT_NAME":"STARLINK-30181","OBJECT_ID":"2023-105Q","EPOCH":"2026-03-09T22:00:01.999584","MEAN_MOTION":15.09558065,"ECCENTRICITY":9.224e-5,"INCLINATION":43.0009,"RA_OF_ASC_NODE":259.9936,"ARG_OF_PERICENTER":299.2922,"MEAN_ANOMALY":278.8532,"EPHEMERIS_TYPE":0,"CLASSIFICATION_TYPE":"U","NORAD_CAT_ID":57444,"ELEMENT_SET_NO":999,"REV_AT_EPOCH":578,"BSTAR":0.005174718,"MEAN_MOTION_DOT":0.00085307,"MEAN_MOTION_DDOT":0},{"OBJECT_NAME":"FENGYUN 1C DEB","OBJECT_ID":"1999-025EMJ","EPOCH":"2026-03-09T03:39:09.279936","MEAN_MOTION":15.01174269,"ECCENTRICITY":0.00472088,"INCLINATION":98.7318,"RA_OF_ASC_NODE":38.98,"ARG_OF_PERICENTER":180.721,"MEAN_ANOMALY":242.109,"EPHEMERIS_TYPE":0,"CLASSIFICATION_TYPE":"U","NORAD_CAT_ID":37717,"ELEMENT_SET_NO":999,"REV_AT_EPOCH":90691,"BSTAR":0.0034859906,"MEAN_MOTION_DOT":0.00045969,"MEAN_MOTION_DDOT":0}]
